{"type": "FeatureCollection", "features": [ {"type": "Feature", "properties": {"norad_id": 33867, "name": "IRIDIUM 33 DEB", "group": "iridium-33-debris", "lat": 17.36626754188878, "lon": 164.36538882371275, "alt_km": 306.2459769968036, "timestamp": "2025-12-21T11:31:43.243672+00:00", "meta": {"OBJECT_NAME": "IRIDIUM 33 DEB", "OBJECT_ID": "1997-051AL", "EPOCH": "2025-12-20T00:00:24.546240", "MEAN_MOTION": 15.83320916, "ECCENTRICITY": 0.00135723, "INCLINATION": 86.3644, "RA_OF_ASC_NODE": 346.2932, "ARG_OF_PERICENTER": 95.1198, "MEAN_ANOMALY": 265.1629, "EPHEMERIS_TYPE": 0, "CLASSIFICATION_TYPE": "U", "NORAD_CAT_ID": 33867, "ELEMENT_SET_NO": 999, "REV_AT_EPOCH": 89625, "BSTAR": 0.0064207293, "MEAN_MOTION_DOT": 0.01574163, "MEAN_MOTION_DDOT": 0}, "tle": {"line1": "1 33867U 97051AL  25354.00028410  .01574163  00000+0  64207-2 0  9990", "line2": "2 33867  86.3644 346.2932 0013572  95.1198 265.1629 15.83320916896259"}}, "geometry": {"type": "Point", "coordinates": [164.36538882371275, 17.36626754188878]}}, {"type": "Feature", "properties": {"norad_id": 33870, "name": "IRIDIUM 33 DEB", "group": "iridium-33-debris", "lat": 72.7649693126424, "lon": 66.30940750200996, "alt_km": 728.6032143946295, "timestamp": "2025-12-21T11:31:43.243683+00:00", "meta": {"OBJECT_NAME": "IRIDIUM 33 DEB", "OBJECT_ID": "1997-051AP", "EPOCH": "2025-12-21T02:58:57.296064", "MEAN_MOTION": 14.45889027, "ECCENTRICITY": 0.0022289, "INCLINATION": 86.3739, "RA_OF_ASC_NODE": 54.6669, "ARG_OF_PERICENTER": 151.351, "MEAN_ANOMALY": 229.7461, "EPHEMERIS_TYPE": 0, "CLASSIFICATION_TYPE": "U", "NORAD_CAT_ID": 33870, "ELEMENT_SET_NO": 999, "REV_AT_EPOCH": 88258, "BSTAR": 0.00047353, "MEAN_MOTION_DOT": 1.707e-05, "MEAN_MOTION_DDOT": 0}, "tle": {"line1": "1 33870U 97051AP  25355.12427426  .00001707  00000+0  47353-3 0  9990", "line2": "2 33870  86.3739  54.6669 0022289 151.3510 229.7461 14.45889027882584"}}, "geometry": {"type": "Point", "coordinates": [66.30940750200996, 72.7649693126424]}}, {"type": "Feature", "properties": {"norad_id": 33881, "name": "IRIDIUM 33 DEB", "group": "iridium-33-debris", "lat": -78.6244615057601, "lon": 84.63818264333928, "alt_km": 741.5602919992962, "timestamp": "2025-12-21T11:31:43.243694+00:00", "meta": {"OBJECT_NAME": "IRIDIUM 33 DEB", "OBJECT_ID": "1997-051BA", "EPOCH": "2025-12-20T18:27:12.976416", "MEAN_MOTION": 14.56702482, "ECCENTRICITY": 0.00613627, "INCLINATION": 86.3866, "RA_OF_ASC_NODE": 103.253, "ARG_OF_PERICENTER": 148.7613, "MEAN_ANOMALY": 2.955, "EPHEMERIS_TYPE": 0, "CLASSIFICATION_TYPE": "U", "NORAD_CAT_ID": 33881, "ELEMENT_SET_NO": 999, "REV_AT_EPOCH": 87617, "BSTAR": 0.0011797904, "MEAN_MOTION_DOT": 5.428e-05, "MEAN_MOTION_DDOT": 0}, "tle": {"line1": "1 33881U 97051BA  25354.76890019  .00005428  00000+0  11798-2 0  9990", "line2": "2 33881  86.3866 103.2530 0061362 148.7613   2.9550 14.56702482876173"}}, "geometry": {"type": "Point", "coordinates": [84.63818264333928, -78.6244615057601]}}, {"type": "Feature", "properties": {"norad_id": 33884, "name": "IRIDIUM 33 DEB", "group": "iridium-33-debris", "lat": 17.481202358093146, "lon": -175.27316865015803, "alt_km": 641.4320394645629, "timestamp": "2025-12-21T11:31:43.243706+00:00", "meta": {"OBJECT_NAME": "IRIDIUM 33 DEB", "OBJECT_ID": "1997-051BD", "EPOCH": "2025-12-20T19:06:20.177568", "MEAN_MOTION": 14.77573333, "ECCENTRICITY": 0.00091017, "INCLINATION": 86.3692, "RA_OF_ASC_NODE": 6.1816, "ARG_OF_PERICENTER": 292.2796, "MEAN_ANOMALY": 192.6099, "EPHEMERIS_TYPE": 0, "CLASSIFICATION_TYPE": "U", "NORAD_CAT_ID": 33884, "ELEMENT_SET_NO": 999, "REV_AT_EPOCH": 88966, "BSTAR": 0.00096382416, "MEAN_MOTION_DOT": 6.912e-05, "MEAN_MOTION_DDOT": 0}, "tle": {"line1": "1 33884U 97051BD  25354.79606687  .00006912  00000+0  96382-3 0  9994", "line2": "2 33884  86.3692   6.1816 0009101 292.2796 192.6099 14.77573333889668"}}, "geometry": {"type": "Point", "coordinates": [-175.27316865015803, 17.481202358093146]}}, {"type": "Feature", "properties": {"norad_id": 33886, "name": "IRIDIUM 33 DEB", "group": "iridium-33-debris", "lat": -45.63240551974273, "lon": -112.74190237761864, "alt_km": 769.3731528457174, "timestamp": "2025-12-21T11:31:43.243717+00:00", "meta": {"OBJECT_NAME": "IRIDIUM 33 DEB", "OBJECT_ID": "1997-051BF", "EPOCH": "2025-12-21T04:03:59.785344", "MEAN_MOTION": 14.36060793, "ECCENTRICITY": 0.0013046, "INCLINATION": 86.3823, "RA_OF_ASC_NODE": 63.6806, "ARG_OF_PERICENTER": 211.4193, "MEAN_ANOMALY": 207.8203, "EPHEMERIS_TYPE": 0, "CLASSIFICATION_TYPE": "U", "NORAD_CAT_ID": 33886, "ELEMENT_SET_NO": 999, "REV_AT_EPOCH": 88173, "BSTAR": 0.00013447, "MEAN_MOTION_DOT": 4.11e-06, "MEAN_MOTION_DDOT": 0}, "tle": {"line1": "1 33886U 97051BF  25355.16944196  .00000411  00000+0  13447-3 0  9997", "line2": "2 33886  86.3823  63.6806 0013046 211.4193 207.8203 14.36060793881732"}}, "geometry": {"type": "Point", "coordinates": [-112.74190237761864, -45.63240551974273]}}, {"type": "Feature", "properties": {"norad_id": 33887, "name": "IRIDIUM 33 DEB", "group": "iridium-33-debris", "lat": -18.675259316536295, "lon": -179.12286514339266, "alt_km": 769.0313525876236, "timestamp": "2025-12-21T11:31:43.243728+00:00", "meta": {"OBJECT_NAME": "IRIDIUM 33 DEB", "OBJECT_ID": "1997-051BG", "EPOCH": "2025-12-21T00:49:50.767104", "MEAN_MOTION": 14.37227835, "ECCENTRICITY": 0.0005316, "INCLINATION": 86.3041, "RA_OF_ASC_NODE": 359.8173, "ARG_OF_PERICENTER": 193.4889, "MEAN_ANOMALY": 220.2624, "EPHEMERIS_TYPE": 0, "CLASSIFICATION_TYPE": "U", "NORAD_CAT_ID": 33887, "ELEMENT_SET_NO": 999, "REV_AT_EPOCH": 88284, "BSTAR": 0.00010739, "MEAN_MOTION_DOT": 3.39e-06, "MEAN_MOTION_DDOT": 0}, "tle": {"line1": "1 33887U 97051BG  25355.03461536  .00000339  00000+0  10739-3 0  9996", "line2": "2 33887  86.3041 359.8173 0005316 193.4889 220.2624 14.37227835882846"}}, "geometry": {"type": "Point", "coordinates": [-179.12286514339266, -18.675259316536295]}}, {"type": "Feature", "properties": {"norad_id": 33953, "name": "IRIDIUM 33 DEB", "group": "iridium-33-debris", "lat": -83.05688447530481, "lon": -98.72898084847952, "alt_km": 728.0833958203357, "timestamp": "2025-12-21T11:31:43.243739+00:00", "meta": {"OBJECT_NAME": "IRIDIUM 33 DEB", "OBJECT_ID": "1997-051BN", "EPOCH": "2025-12-21T03:57:52.116192", "MEAN_MOTION": 14.55395308, "ECCENTRICITY": 0.0017887, "INCLINATION": 86.3839, "RA_OF_ASC_NODE": 50.1227, "ARG_OF_PERICENTER": 77.1433, "MEAN_ANOMALY": 336.6692, "EPHEMERIS_TYPE": 0, "CLASSIFICATION_TYPE": "U", "NORAD_CAT_ID": 33953, "ELEMENT_SET_NO": 999, "REV_AT_EPOCH": 88426, "BSTAR": 0.00069439, "MEAN_MOTION_DOT": 3.042e-05, "MEAN_MOTION_DDOT": 0}, "tle": {"line1": "1 33953U 97051BN  25355.16518653  .00003042  00000+0  69439-3 0  9992", "line2": "2 33953  86.3839  50.1227 0017887  77.1433 336.6692 14.55395308884261"}}, "geometry": {"type": "Point", "coordinates": [-98.72898084847952, -83.05688447530481]}}, {"type": "Feature", "properties": {"norad_id": 33960, "name": "IRIDIUM 33 DEB", "group": "iridium-33-debris", "lat": -67.50923297856612, "lon": -83.71271194101499, "alt_km": 621.1418177074856, "timestamp": "2025-12-21T11:31:43.243750+00:00", "meta": {"OBJECT_NAME": "IRIDIUM 33 DEB", "OBJECT_ID": "1997-051BV", "EPOCH": "2025-12-21T02:11:40.663968", "MEAN_MOTION": 14.85568668, "ECCENTRICITY": 0.0007357, "INCLINATION": 86.2542, "RA_OF_ASC_NODE": 285.5753, "ARG_OF_PERICENTER": 46.9215, "MEAN_ANOMALY": 326.8092, "EPHEMERIS_TYPE": 0, "CLASSIFICATION_TYPE": "U", "NORAD_CAT_ID": 33960, "ELEMENT_SET_NO": 999, "REV_AT_EPOCH": 88991, "BSTAR": 0.001989, "MEAN_MOTION_DOT": 0.00017252, "MEAN_MOTION_DDOT": 0}, "tle": {"line1": "1 33960U 97051BV  25355.09144287  .00017252  00000+0  19890-2 0  9993", "line2": "2 33960  86.2542 285.5753 0007357  46.9215 326.8092 14.85568668889916"}}, "geometry": {"type": "Point", "coordinates": [-83.71271194101499, -67.50923297856612]}}, {"type": "Feature", "properties": {"norad_id": 33966, "name": "IRIDIUM 33 DEB", "group": "iridium-33-debris", "lat": -29.407457650293185, "lon": -135.68548959756404, "alt_km": 729.0144231114491, "timestamp": "2025-12-21T11:31:43.243761+00:00", "meta": {"OBJECT_NAME": "IRIDIUM 33 DEB", "OBJECT_ID": "1997-051CB", "EPOCH": "2025-12-20T09:48:07.873344", "MEAN_MOTION": 14.49621404, "ECCENTRICITY": 0.00082754, "INCLINATION": 86.3914, "RA_OF_ASC_NODE": 42.7361, "ARG_OF_PERICENTER": 163.9635, "MEAN_ANOMALY": 214.8558, "EPHEMERIS_TYPE": 0, "CLASSIFICATION_TYPE": "U", "NORAD_CAT_ID": 33966, "ELEMENT_SET_NO": 999, "REV_AT_EPOCH": 88553, "BSTAR": 0.00035675491, "MEAN_MOTION_DOT": 1.39e-05, "MEAN_MOTION_DDOT": 0}, "tle": {"line1": "1 33966U 97051CB  25354.40842446  .00001390  00000+0  35675-3 0  9991", "line2": "2 33966  86.3914  42.7361 0008275 163.9635 214.8558 14.49621404885535"}}, "geometry": {"type": "Point", "coordinates": [-135.68548959756404, -29.407457650293185]}}, {"type": "Feature", "properties": {"norad_id": 34071, "name": "IRIDIUM 33 DEB", "group": "iridium-33-debris", "lat": -85.98256401681844, "lon": -51.50021081421475, "alt_km": 741.7374647340375, "timestamp": "2025-12-21T11:31:43.243772+00:00", "meta": {"OBJECT_NAME": "IRIDIUM 33 DEB", "OBJECT_ID": "1997-051CE", "EPOCH": "2025-12-21T00:20:18.829248", "MEAN_MOTION": 14.49497272, "ECCENTRICITY": 0.0009933, "INCLINATION": 86.3448, "RA_OF_ASC_NODE": 14.2316, "ARG_OF_PERICENTER": 85.3015, "MEAN_ANOMALY": 274.9323, "EPHEMERIS_TYPE": 0, "CLASSIFICATION_TYPE": "U", "NORAD_CAT_ID": 34071, "ELEMENT_SET_NO": 999, "REV_AT_EPOCH": 88454, "BSTAR": 0.00040535, "MEAN_MOTION_DOT": 1.573e-05, "MEAN_MOTION_DDOT": 0}, "tle": {"line1": "1 34071U 97051CE  25355.01410682  .00001573  00000+0  40535-3 0  9994", "line2": "2 34071  86.3448  14.2316 0009933  85.3015 274.9323 14.49497272884541"}}, "geometry": {"type": "Point", "coordinates": [-51.50021081421475, -85.98256401681844]}}]}